[
  {
    "OBJECT_NAME": "NOAA 15",
    "OBJECT_ID": "1998-030A",
    "EPOCH": "2025-06-14T20:38:20.537088",
    "MEAN_MOTION": 14.26982562,
    "ECCENTRICITY": 0.0009914,
    "INCLINATION": 98.5344,
    "RA_OF_ASC_NODE": 190.864,
    "ARG_OF_PERICENTER": 351.2073,
    "MEAN_ANOMALY": 8.8933,
    "EPHEMERIS_TYPE": 0,
    "CLASSIFICATION_TYPE": "U",
    "NORAD_CAT_ID": 25338,
    "ELEMENT_SET_NO": 999,
    "REV_AT_EPOCH": 40915,
    "BSTAR": 9.54e-05,
    "MEAN_MOTION_DOT": 1.89e-06,
    "MEAN_MOTION_DDOT": 0
  },
  {
    "OBJECT_NAME": "NOAA 18",
    "OBJECT_ID": "2005-018A",
    "EPOCH": "2025-06-14T17:14:19.543200",
    "MEAN_MOTION": 14.13612041,
    "ECCENTRICITY": 0.001532,
    "INCLINATION": 98.8424,
    "RA_OF_ASC_NODE": 245.1367,
    "ARG_OF_PERICENTER": 113.7636,
    "MEAN_ANOMALY": 246.5145,
    "EPHEMERIS_TYPE": 0,
    "CLASSIFICATION_TYPE": "U",
    "NORAD_CAT_ID": 28654,
    "ELEMENT_SET_NO": 999,
    "REV_AT_EPOCH": 3447,
    "BSTAR": 9.3579e-05,
    "MEAN_MOTION_DOT": 1.33e-06,
    "MEAN_MOTION_DDOT": 0
  },
  {
    "OBJECT_NAME": "NOAA 19",
    "OBJECT_ID": "2009-005A",
    "EPOCH": "2025-06-14T17:24:49.343904",
    "MEAN_MOTION": 14.13376763,
    "ECCENTRICITY": 0.0013475,
    "INCLINATION": 98.997,
    "RA_OF_ASC_NODE": 230.4589,
    "ARG_OF_PERICENTER": 353.9944,
    "MEAN_ANOMALY": 6.1065,
    "EPHEMERIS_TYPE": 0,
    "CLASSIFICATION_TYPE": "U",
    "NORAD_CAT_ID": 33591,
    "ELEMENT_SET_NO": 999,
    "REV_AT_EPOCH": 84283,
    "BSTAR": 0.0001142,
    "MEAN_MOTION_DOT": 1.69e-06,
    "MEAN_MOTION_DDOT": 0
  },
  {
    "OBJECT_NAME": "SUOMI NPP",
    "OBJECT_ID": "2011-061A",
    "EPOCH": "2025-06-14T18:10:54.880032",
    "MEAN_MOTION": 14.19539731,
    "ECCENTRICITY": 7.85e-05,
    "INCLINATION": 98.758,
    "RA_OF_ASC_NODE": 104.9678,
    "ARG_OF_PERICENTER": 354.0614,
    "MEAN_ANOMALY": 6.0552,
    "EPHEMERIS_TYPE": 0,
    "CLASSIFICATION_TYPE": "U",
    "NORAD_CAT_ID": 37849,
    "ELEMENT_SET_NO": 999,
    "REV_AT_EPOCH": 70630,
    "BSTAR": 5.0305e-05,
    "MEAN_MOTION_DOT": 6.2e-07,
    "MEAN_MOTION_DDOT": 0
  },
  {
    "OBJECT_NAME": "NOAA 20 (JPSS-1)",
    "OBJECT_ID": "2017-073A",
    "EPOCH": "2025-06-14T20:14:43.002528",
    "MEAN_MOTION": 14.19544212,
    "ECCENTRICITY": 1.92e-05,
    "INCLINATION": 98.7418,
    "RA_OF_ASC_NODE": 104.3525,
    "ARG_OF_PERICENTER": 21.1348,
    "MEAN_ANOMALY": 338.9836,
    "EPHEMERIS_TYPE": 0,
    "CLASSIFICATION_TYPE": "U",
    "NORAD_CAT_ID": 43013,
    "ELEMENT_SET_NO": 999,
    "REV_AT_EPOCH": 39235,
    "BSTAR": 5.2571e-05,
    "MEAN_MOTION_DOT": 6.7e-07,
    "MEAN_MOTION_DDOT": 0
  },
  {
    "OBJECT_NAME": "NOAA 21 (JPSS-2)",
    "OBJECT_ID": "2022-150A",
    "EPOCH": "2025-06-14T19:25:38.266752",
    "MEAN_MOTION": 14.19538973,
    "ECCENTRICITY": 0.0002222,
    "INCLINATION": 98.7274,
    "RA_OF_ASC_NODE": 104.6071,
    "ARG_OF_PERICENTER": 128.8564,
    "MEAN_ANOMALY": 231.281,
    "EPHEMERIS_TYPE": 0,
    "CLASSIFICATION_TYPE": "U",
    "NORAD_CAT_ID": 54234,
    "ELEMENT_SET_NO": 999,
    "REV_AT_EPOCH": 13442,
    "BSTAR": 5.3624e-05,
    "MEAN_MOTION_DOT": 6.9e-07,
    "MEAN_MOTION_DDOT": 0
  }
]