NOAA 15                 
1 25338U 98030A   25165.85995992  .00000189  00000+0  95400-4 0  9995
2 25338  98.5344 190.8640 0009914 351.2073   8.8933 14.26982562409153
NOAA 18                 
1 28654U 05018A   25165.71828175  .00000133  00000+0  93579-4 0  9990
2 28654  98.8424 245.1367 0015320 113.7636 246.5145 14.13612041 34476
NOAA 19                 
1 33591U 09005A   25165.72557111  .00000169  00000+0  11420-3 0  9999
2 33591  98.9970 230.4589 0013475 353.9944   6.1065 14.13376763842837
SUOMI NPP               
1 37849U 11061A   25165.75757963  .00000062  00000+0  50305-4 0  9992
2 37849  98.7580 104.9678 0000785 354.0614   6.0552 14.19539731706305
NOAA 20 (JPSS-1)        
1 43013U 17073A   25165.84355327  .00000067  00000+0  52571-4 0  9991
2 43013  98.7418 104.3525 0000192  21.1348 338.9836 14.19544212392356
NOAA 21 (JPSS-2)        
1 54234U 22150A   25165.80947068  .00000069  00000+0  53624-4 0  9997
2 54234  98.7274 104.6071 0002222 128.8564 231.2810 14.19538973134429
